1 27642U 03002A   04065.93612558 -.00000960 +00000-0 -96219-4 0  9998
2 27642 093.9980 033.2631 0001651 042.1615 317.9739 14.90867926062257
1 27642U 03002A   04066.47307883 -.00000748  00000-0 -74733-4 0  9991
2 27642 093.9958 033.5341 0001488 072.8206 287.3096 14.90867904 62338
1 27642U 03002A   04066.94291219 -.00000500 +00000-0 -49544-4 0  9996
2 27642 093.9958 033.7725 0001382 051.5396 308.5955 14.90869928062409
1 27642U 03002A   04067.47986410  .00000238  00000-0  25521-4 0  9994
2 27642 093.9950 034.0442 0001850 053.2057 306.9419 14.90875545 62481
1 27642U 03002A   04067.94969513 +.00000316 +00000-0 +33404-4 0  9997
2 27642 093.9950 034.2827 0001852 047.3738 312.7644 14.90876602062550
1 27642U 03002A   04068.88936110  .00000391  00000-0  41033-4 0  9998
2 27642 093.9952 034.7597 0001809 047.7929 312.3475 14.90877994 62697
1 27642U 03002A   04068.95647967 +.00000390 +00000-0 +40928-4 0  9996
2 27642 093.9952 034.7938 0001807 047.6980 312.4399 14.90878039062709
1 27642U 03002A   04069.89614519  .00000405  00000-0  42385-4 0  9993
2 27642 093.9958 035.2708 0001732 050.9742 309.1636 14.90878948 62847
1 27642U 03002A   04069.96326421 +.00000402 +00000-0 +42124-4 0  9991
2 27642 093.9958 035.3049 0001730 051.0182 309.1197 14.90878981062854
1 27642U 03002A   04070.90292943  .00000410  00000-0  42899-4 0  9996
2 27642 093.9961 035.7818 0001682 050.2358 309.9015 14.90879808 62999
1 27642U 03002A   04070.97004838 +.00000407 +00000-0 +42687-4 0  9998
2 27642 093.9961 035.8159 0001681 050.1577 309.9796 14.90879852063007
1 27642U 03002A   04071.90971174 +.00000543 +00000-0 +56449-4 0  9990
2 27642 093.9963 036.2929 0001602 052.5431 307.5941 14.90881366063141
1 27642U 03002A   04072.91649167  .00001001  00000-0  10292-3 0  9991
2 27642 093.9967 036.8040 0001591 059.4071 300.7300 14.90884421 63293
1 27642U 03002A   04072.91649189 +.00000992 +00000-0 +10201-3 0  9993
2 27642 093.9967 036.8040 0001586 059.7560 300.3823 14.90884391063295
1 27642U 03002A   04073.85616153 -.00001835  00000-0 -18517-3 0  9999
2 27642 093.9974 037.2827 0001408 072.1676 287.9704 14.90875028 63432
1 27642U 03002A   04073.92328168 -.00002230 +00000-0 -22533-3 0  9996
2 27642 093.9977 037.3173 0001476 077.0864 283.0526 14.90873253063446
1 27642U 03002A   04074.86295424 -.00002752  00000-0 -27847-3 0  9990
2 27642 093.9979 037.7947 0001395 075.0359 285.1018 14.90866379 63583
1 27642U 03002A   04074.93007404 -.00002793 +00000-0 -28268-3 0  9990
2 27642 093.9980 037.8288 0001407 074.7298 285.4083 14.90865810063591
1 27642U 03002A   04075.86974709 -.00002029  00000-0 -20499-3 0  9994
2 27642 093.9973 038.3043 0001380 068.1924 291.9529 14.90865144 63734
1 27642U 03002A   04075.93686489 -.00001972 +00000-0 -19915-3 0  9994
2 27642 093.9973 038.3381 0001363 067.2683 292.8688 14.90865225063749
1 27642U 03002A   04076.47381994 -.00000729  00000-0 -72786-4 0  9992
2 27642 093.9975 038.6085 0001265 079.3159 280.8385 14.90870648 63823
1 27642U 03002A   04076.94365249 -.00000749 +00000-0 -74853-4 0  9998
2 27642 093.9975 038.8470 0001289 079.3275 280.8087 14.90869755063891
1 27642U 03002A   04077.88332381 -.00000702  00000-0 -69997-4 0  9995
2 27642 093.9975 039.3240 0001298 078.4941 281.6436 14.90868884 64038
1 27642U 03002A   04077.95044316 -.00000700 +00000-0 -69854-4 0  9991
2 27642 093.9975 039.3581 0001296 078.2949 281.8424 14.90868806064044
1 27642U 03002A   04078.89011276 -.00000551  00000-0 -54733-4 0  9998
2 27642 093.9971 039.8344 0001294 081.6577 278.4797 14.90869014 64187
1 27642U 03002A   04078.95723218 -.00000550 +00000-0 -54617-4 0  9991
2 27642 093.9971 039.8685 0001292 081.4196 278.7178 14.90868952064195
1 27642U 03002A   04079.89690006 -.00000313  00000-0 -30558-4 0  9998
2 27642 093.9976 040.3458 0001377 085.5342 274.6043 14.90870245 64337
1 27642U 03002A   04079.96401939 -.00000303 +00000-0 -29509-4 0  9994
2 27642 093.9976 040.3799 0001359 084.2290 275.9099 14.90870298064347
